[{"name":"PISAT","l1":"1 41784U 16059B   26183.46991318  .00001126  00000+0  19878-3 0  9991","l2":"2 41784  97.8182 183.2661 0029647 153.9873 206.2831 14.69011061521988","cat":"science"},{"name":"FLYING LAPTOP","l1":"1 42831U 17042G   26183.78291487  .00006414  00000+0  50145-3 0  9990","l2":"2 42831  97.4760 338.7224 0020006  71.9828 288.3575 15.01250097488799","cat":"science"},{"name":"SALSAT","l1":"1 46495U 20068K   26183.25417132  .00008637  00000+0  29987-3 0  9990","l2":"2 46495  97.8847 187.2381 0008038 243.7769 116.2645 15.30013367317667","cat":"science"},{"name":"SAUDISAT 1C (SO-50)","l1":"1 27607U 02058C   26183.73200521  .00001058  00000+0  14185-3 0  9992","l2":"2 27607  64.5520  80.8899 0074883 259.5665  99.6996 14.83079392266767","cat":"other"},{"name":"SAUDISAT 2","l1":"1 28371U 04025F   26183.27793993  .00000291  00000+0  76076-4 0  9992","l2":"2 28371  98.5511 183.6500 0023503 249.4990 110.3685 14.56692512167947","cat":"other"},{"name":"SAUDISAT 3","l1":"1 31118U 07012B   26183.62715030  .00000322  00000+0  60077-4 0  9998","l2":"2 31118  98.1462 134.0384 0014711 173.1502 186.9908 14.71434502 30018","cat":"other"}]