OBJECT_NAME,OBJECT_ID,EPOCH,MEAN_MOTION,ECCENTRICITY,INCLINATION,RA_OF_ASC_NODE,ARG_OF_PERICENTER,MEAN_ANOMALY,EPHEMERIS_TYPE,CLASSIFICATION_TYPE,NORAD_CAT_ID,ELEMENT_SET_NO,REV_AT_EPOCH,BSTAR,MEAN_MOTION_DOT,MEAN_MOTION_DDOT
SAUDISAT 1C (SO-50),2002-058C,2026-07-02T17:34:05.250144,14.83079392,.0074883,64.5520,80.8899,259.5665,99.6996,0,U,27607,999,26676,.14185E-3,.1058E-4,0
SAUDISAT 2,2004-025F,2026-07-02T06:40:14.009952,14.56692512,.0023503,98.5511,183.6500,249.4990,110.3685,0,U,28371,999,16794,.76076E-4,.291E-5,0
SAUDISAT 3,2007-012B,2026-07-02T15:03:05.785920,14.71434502,.0014711,98.1462,134.0384,173.1502,186.9908,0,U,31118,999,3001,.60077E-4,.322E-5,0
PISAT,2016-059B,2026-07-02T11:16:40.498752,14.69011061,.0029647,97.8182,183.2661,153.9873,206.2831,0,U,41784,999,52198,.19878E-3,.1126E-4,0
FLYING LAPTOP,2017-042G,2026-07-02T18:47:23.844768,15.01250097,.0020006,97.4760,338.7224,71.9828,288.3575,0,U,42831,999,48879,.50145E-3,.6414E-4,0
SALSAT,2020-068K,2026-07-02T06:06:00.402048,15.30013367,.0008038,97.8847,187.2381,243.7769,116.2645,0,U,46495,999,31766,.29987E-3,.8637E-4,0
